[{"OBJECT_NAME":"STARLINK-31961","OBJECT_ID":"2024-100K","EPOCH":"2026-03-09T12:46:16.818240","MEAN_MOTION":15.275734,"ECCENTRICITY":0.00013201,"INCLINATION":43.0038,"RA_OF_ASC_NODE":119.2911,"ARG_OF_PERICENTER":250.1404,"MEAN_ANOMALY":109.9306,"EPHEMERIS_TYPE":0,"CLASSIFICATION_TYPE":"U","NORAD_CAT_ID":59894,"ELEMENT_SET_NO":999,"REV_AT_EPOCH":10121,"BSTAR":-3.8820697e-5,"MEAN_MOTION_DOT":-1.33e-5,"MEAN_MOTION_DDOT":0},{"OBJECT_NAME":"FLOCK 4G-24","OBJECT_ID":"2025-009AE","EPOCH":"2026-03-09T17:24:07.838208","MEAN_MOTION":15.27784978,"ECCENTRICITY":0.0001802,"INCLINATION":97.4061,"RA_OF_ASC_NODE":151.514,"ARG_OF_PERICENTER":280.2808,"MEAN_ANOMALY":79.8228,"EPHEMERIS_TYPE":0,"CLASSIFICATION_TYPE":"U","NORAD_CAT_ID":62637,"ELEMENT_SET_NO":999,"REV_AT_EPOCH":6373,"BSTAR":0.00038996067,"MEAN_MOTION_DOT":0.00010513,"MEAN_MOTION_DDOT":0}]
