STARLINK-31961          
1 59894U 24100K   26068.53213910 -.00001330  00000+0 -38821-4 0  9992
2 59894  43.0038 119.2911 0001320 250.1404 109.9306 15.27573400101218
FLOCK 4G-24             
1 62637U 25009AE  26068.72509072  .00010513  00000+0  38996-3 0  9991
2 62637  97.4061 151.5140 0001802 280.2808  79.8228 15.27784978 63732
